[
  {
    "norad_id": "63214",
    "name": "TEVEL2-5",
    "tle1": "1 63214U 25052E   25115.18057754  .00019611  00000+0  93048-3 0  9995\r",
    "tle2": "2 63214  97.4386   9.8444 0005157 124.8897 235.2823 15.19292691  6355",
    "transmitters": [],
    "image": "satellites/transit-o__1.jpg",
    "country": "US"
  },
  {
    "norad_id": "63215",
    "name": "TEVEL2-6",
    "tle1": "1 63215U 25052F   25114.19355275  .00018273  00000+0  86957-3 0  9999\r",
    "tle2": "2 63215  97.4381   8.8709 0005103 128.2687 231.9007 15.19205148  6202",
    "transmitters": [],
    "image": "satellites/transit-o__1.jpg",
    "country": "US"
  },
  {
    "norad_id": "63239",
    "name": "TEVEL2-7",
    "tle1": "1 63239U 25052AF  25115.21854766  .00018428  00000+0  91194-3 0  9999\r",
    "tle2": "2 63239  97.4423   9.8148 0009045 159.0986 201.0619 15.17817046  6353",
    "transmitters": [],
    "image": "satellites/transit-o__1.jpg",
    "country": "US"
  },
  {
    "norad_id": "63237",
    "name": "TEVEL2-8",
    "tle1": "1 63237U 25052AD  25115.15090937  .00018919  00000+0  93406-3 0  9995\r",
    "tle2": "2 63237  97.4424   9.7519 0008931 159.1063 201.0537 15.17892715  6347",
    "transmitters": [],
    "image": "satellites/transit-o__1.jpg",
    "country": "US"
  },
  {
    "norad_id": "63238",
    "name": "TEVEL2-9",
    "tle1": "1 63238U 25052AE  25114.16283587  .00016882  00000+0  83605-3 0  9998\r",
    "tle2": "2 63238  97.4426   8.7796 0008881 162.4365 197.7178 15.17810167  6198",
    "transmitters": [],
    "image": "satellites/transit-o__1.jpg",
    "country": "US"
  },
  {
    "norad_id": "57172",
    "name": "UmKA-1",
    "tle1": "1 57172U 23091G   25115.16809095  .00010704  00000+0  57899-3 0  9991\r",
    "tle2": "2 57172  97.5627 170.7948 0016083 128.9541 231.3127 15.14733482100608",
    "transmitters": [
      {
        "description": "Mode U - GMSK 4k8 (G3RUH) TLM",
        "mode": "FSK",
        "status": "inactive",
        "uplink": null,
        "downlink": 435825000
      },
      {
        "description": "Mode U - GMSK 2k4 (G3RUH) TLM",
        "mode": "FSK",
        "status": "inactive",
        "uplink": null,
        "downlink": 437625000
      },
      {
        "description": "Mode U - GMSK 9k6 (USP) TLM",
        "mode": "GMSK USP",
        "status": "active",
        "uplink": null,
        "downlink": 437625000
      },
      {
        "description": "Mode U - GMSK 2k4 (USP) TLM",
        "mode": "GMSK USP",
        "status": "inactive",
        "uplink": null,
        "downlink": 437625000
      },
      {
        "description": "Mode S - BPSK 2Mbps TLM",
        "mode": "BPSK",
        "status": "active",
        "uplink": null,
        "downlink": 2402400000
      },
      {
        "description": "Mode U - SSTV",
        "mode": "SSTV",
        "status": "active",
        "uplink": null,
        "downlink": 437625000
      },
      {
        "description": "Mode U - GMSK 4k8 (USP) TLM",
        "mode": "GMSK USP",
        "status": "active",
        "uplink": null,
        "downlink": 437625000
      }
    ],
    "image": "satellites/umka.jpeg",
    "country": "RU"
  },
  {
    "norad_id": "14781",
    "name": "UO-11",
    "tle1": "1 14781U 84021B   25114.84718857  .00003427  00000+0  36779-3 0  9997\r",
    "tle2": "2 14781  97.7502  82.1366 0009208 121.2896 238.9224 14.89217086194838",
    "transmitters": [
      {
        "description": "1k2 AFSK TLM",
        "mode": "AFSK",
        "status": "active",
        "uplink": null,
        "downlink": 145825000
      },
      {
        "description": "1k2 AFSK Payload",
        "mode": "AFSK",
        "status": "inactive",
        "uplink": null,
        "downlink": 435025000
      },
      {
        "description": "4k8 PSK Payload",
        "mode": "PSK",
        "status": "inactive",
        "uplink": null,
        "downlink": 435025000
      },
      {
        "description": "FM Beacon",
        "mode": "FM",
        "status": "inactive",
        "uplink": null,
        "downlink": 2401500000
      }
    ],
    "image": "https://db-satnogs.freetls.fastly.net/media/satellites/UoSat-2.jpg",
    "country": "GB"
  },
  {
    "norad_id": "46276",
    "name": "UPMSat-2",
    "tle1": "1 46276U 20061E   25114.66978504  .00081680  00000+0  91299-3 0  9997\r",
    "tle2": "2 46276  97.2480 187.7101 0001504 138.2206 221.9168 15.62485446258283",
    "transmitters": [
      {
        "description": "PE0SAT - 1k2 BPSK AFSK Tones",
        "mode": "BPSK",
        "status": "inactive",
        "uplink": null,
        "downlink": 437405000
      },
      {
        "description": "Mode U - FSK1k2 - AX.25",
        "mode": "FSK",
        "status": "active",
        "uplink": null,
        "downlink": 437405000
      }
    ],
    "image": "satellites/upmsat-2__1.jpg",
    "country": "ES"
  },
  {
    "norad_id": "43880",
    "name": "UWE-4",
    "tle1": "1 43880U 18111E   25114.28722901  .00021557  00000+0  88149-3 0  9991\r",
    "tle2": "2 43880  97.5930  26.5053 0013252  23.9172 336.2678 15.24290558346577",
    "transmitters": [
      {
        "description": "FSK9k6 AX.25 TLM - 16K0F2D",
        "mode": "FSK",
        "status": "inactive",
        "uplink": null,
        "downlink": 437385000
      },
      {
        "description": "Mode U - FSK 9600 AX.25",
        "mode": "FSK",
        "status": "active",
        "uplink": null,
        "downlink": 435600000
      }
    ],
    "image": "",
    "country": "DE"
  },
  {
    "norad_id": "58261",
    "name": "Veronika",
    "tle1": "1 58261U 23174F   25115.17695077  .00120698  00000+0  15306-2 0  9997\r",
    "tle2": "2 58261  97.4157 199.0242 0007921 206.7018 153.3831 15.59007517 81583",
    "transmitters": [
      {
        "description": "Mode U/U - GFSK9k6 AX.25 G3RUH",
        "mode": "GFSK",
        "status": "active",
        "uplink": 436680000,
        "downlink": 436680000
      },
      {
        "description": "Mode U - CW",
        "mode": "CW",
        "status": "active",
        "uplink": null,
        "downlink": 436680000
      },
      {
        "description": "Mode V/V - GFSK9k6 AX.25 G3RUH",
        "mode": "GFSK",
        "status": "inactive",
        "uplink": 145925000,
        "downlink": 145925000
      }
    ],
    "image": "satellites/veronika_G6OopQK.jpg",
    "country": ""
  },
  {
    "norad_id": "39417",
    "name": "ZACube-1",
    "tle1": "1 39417U 13066B   25114.84867327  .00007687  00000+0  67475-3 0  9997\r",
    "tle2": "2 39417  97.7768  72.1328 0043508 202.6066 157.3240 14.96151087618071",
    "transmitters": [
      {
        "description": "FSK1k2 TLM",
        "mode": "FSK",
        "status": "active",
        "uplink": null,
        "downlink": 437356000
      },
      {
        "description": "FSK9K6 TLM",
        "mode": "FSK",
        "status": "active",
        "uplink": null,
        "downlink": 437356000
      },
      {
        "description": "14.099 MHz CW Beacon",
        "mode": "CW",
        "status": "active",
        "uplink": null,
        "downlink": 14099000
      }
    ],
    "image": "https://db-satnogs.freetls.fastly.net/media/satellites/index.jpeg",
    "country": "ZA"
  },
  {
    "norad_id": "42759",
    "name": "ZHUHAI-1 02",
    "tle1": "1 42759U 17034B   25115.21546658  .00071880  00000+0  94264-3 0  9994\r",
    "tle2": "2 42759  43.0086 231.1135 0019762 331.3896  28.5881 15.57413284435514",
    "transmitters": [
      {
        "description": "CW Beacon",
        "mode": "CW",
        "status": "active",
        "uplink": null,
        "downlink": 145910000
      },
      {
        "description": "Linear Transponder",
        "mode": "USB",
        "status": "active",
        "uplink": "435270000-435290000",
        "downlink": "145915000-145935000"
      },
      {
        "description": "Mode U GMSK4k8 - TLM",
        "mode": "GMSK",
        "status": "active",
        "uplink": null,
        "downlink": 145893000
      }
    ],
    "image": "https://db-satnogs.freetls.fastly.net/media/satellites/cas-4-satellite_27im88Z.jpg",
    "country": "CN"
  },
  {
    "norad_id": "49399",
    "name": "Z-Sat",
    "tle1": "1 49399U 21102E   25115.15331935  .00006694  00000+0  37149-3 0  9995\r",
    "tle2": "2 49399  97.3850 158.0381 0016531 259.9784  99.9582 15.13953013190108",
    "transmitters": [
      {
        "description": "Mode V - CW Beacon",
        "mode": "CW",
        "status": "active",
        "uplink": null,
        "downlink": 145875000
      },
      {
        "description": "Mode U/V - BBS",
        "mode": "FSK",
        "status": "active",
        "uplink": 435480000,
        "downlink": 145875000
      },
      {
        "description": "Mode V - 9K6 GMSK",
        "mode": "GMSK",
        "status": "active",
        "uplink": null,
        "downlink": 145875000
      }
    ],
    "image": "",
    "country": "JP"
  }
]